{"type":"FeatureCollection","features":[{"type":"Feature","properties":{},"geometry":{"type":"Polygon","coordinates":[[[-77.105839,18.41282],[-77.105839,18.41282]]]}},{"type":"Feature","properties":{},"geometry":{"type":"Polygon","coordinates":[[[-77.105834,18.412815],[-77.105793,18.412618],[-77.10552,18.412665],[-77.105512,18.412577],[-77.105465,18.412585],[-77.105443,18.41251],[-77.105192,18.412551],[-77.105219,18.41274],[-77.105274,18.412976],[-77.105329,18.412963],[-77.105348,18.412991],[-77.105602,18.41295],[-77.105572,18.412859],[-77.105834,18.412815]]]}},{"type":"Feature","properties":{},"geometry":{"type":"Polygon","coordinates":[[[-77.105271,18.412976],[-77.105162,18.412543],[-77.105547,18.412453],[-77.105509,18.412232],[-77.105132,18.412323],[-77.105143,18.412385],[-77.104979,18.412432],[-77.10511,18.412986],[-77.105116,18.413004],[-77.105116,18.413004],[-77.105271,18.412976]]]}},{"type":"Feature","properties":{},"geometry":{"type":"Polygon","coordinates":[[[-77.105105,18.413082],[-77.104975,18.412642],[-77.104975,18.412642],[-77.105008,18.412633],[-77.104982,18.412547],[-77.104949,18.412559],[-77.104923,18.41243],[-77.104735,18.412473],[-77.104926,18.413125],[-77.105105,18.413082]]]}},{"type":"Feature","properties":{},"geometry":{"type":"Polygon","coordinates":[[[-77.104946,18.413285],[-77.104716,18.412485],[-77.104459,18.412547],[-77.10468,18.413344],[-77.104946,18.413285]]]}}]}